start=new Date('2021-11-20T00:00:00.000Z').valueOf();
sats=[{"RCS_SIZE":"LARGE","DECAY_DATE":null,"PERIAPSIS":"546.273","TLE_LINE2":"2 47761  53.0556  64.7565 0001380  88.7596 271.3551 15.06394962 40293","MEAN_MOTION":"15.06394962","MEAN_ELEMENT_THEORY":"SGP4","REF_FRAME":"TEME","OBJECT_TYPE":"PAYLOAD","EPOCH":"2021-11-19T13:07:46.325280","MEAN_MOTION_DDOT":"0.0000000000000","PERIOD":"95.592","GP_ID":"190050419","ECCENTRICITY":"0.00013800","APOAPSIS":"548.185","CLASSIFICATION_TYPE":"U","OBJECT_NAME":"STARLINK-2179","MEAN_MOTION_DOT":"0.00000037","RA_OF_ASC_NODE":"64.7565","SEMIMAJOR_AXIS":"6925.364","NORAD_CAT_ID":"47761","TIME_SYSTEM":"UTC","ELEMENT_SET_NO":"999","CENTER_NAME":"EARTH","TLE_LINE1":"1 47761U 21017AR  21323.54706395  .00000037  00000-0  21353-4 0  9994","SITE":"AFETR","INCLINATION":"53.0556","ARG_OF_PERICENTER":"88.7596","OBJECT_ID":"2021-017AR","FILE":"3219096","REV_AT_EPOCH":"4029","EPHEMERIS_TYPE":"0","BSTAR":"0.00002135300000","COUNTRY_CODE":"US","LAUNCH_DATE":"2021-03-04","MEAN_ANOMALY":"271.3551"},{"OBJECT_NAME":"STARLINK-2180","CLASSIFICATION_TYPE":"U","APOAPSIS":"548.181","RA_OF_ASC_NODE":"80.2456","MEAN_MOTION_DOT":"-0.00000262","SEMIMAJOR_AXIS":"6925.348","NORAD_CAT_ID":"47762","ELEMENT_SET_NO":"999","TIME_SYSTEM":"UTC","CENTER_NAME":"EARTH","INCLINATION":"53.0568","SITE":"AFETR","TLE_LINE1":"1 47762U 21017AS  21323.43968398 -.00000262  00000-0  13184-5 0  9991","REV_AT_EPOCH":"4071","FILE":"3219209","OBJECT_ID":"2021-017AS","ARG_OF_PERICENTER":"78.5351","LAUNCH_DATE":"2021-03-04","MEAN_ANOMALY":"281.5794","COUNTRY_CODE":"US","EPHEMERIS_TYPE":"0","BSTAR":"0.00000131840000","RCS_SIZE":"LARGE","DECAY_DATE":null,"TLE_LINE2":"2 47762  53.0568  80.2456 0001398  78.5351 281.5794 15.06400326 40715","PERIAPSIS":"546.244","MEAN_MOTION_DDOT":"0.0000000000000","EPOCH":"2021-11-19T10:33:08.695872","OBJECT_TYPE":"PAYLOAD","MEAN_ELEMENT_THEORY":"SGP4","MEAN_MOTION":"15.06400326","REF_FRAME":"TEME","GP_ID":"190074661","PERIOD":"95.592","ECCENTRICITY":"0.00013980"},{"CENTER_NAME":"EARTH","SITE":"AFETR","TLE_LINE1":"1 47763U 21017AT  21323.45630979 -.00001794  00000-0 -10165-3 0  9991","INCLINATION":"53.0710","OBJECT_ID":"2021-017AT","ARG_OF_PERICENTER":"95.8249","REV_AT_EPOCH":"4083","FILE":"3219209","COUNTRY_CODE":"US","LAUNCH_DATE":"2021-03-04","MEAN_ANOMALY":"264.2856","BSTAR":"-0.00010165000000","EPHEMERIS_TYPE":"0","APOAPSIS":"547.968","CLASSIFICATION_TYPE":"U","OBJECT_NAME":"STARLINK-2181","RA_OF_ASC_NODE":"70.0852","MEAN_MOTION_DOT":"-0.00001794","NORAD_CAT_ID":"47763","SEMIMAJOR_AXIS":"6925.399","ELEMENT_SET_NO":"999","TIME_SYSTEM":"UTC","OBJECT_TYPE":"PAYLOAD","MEAN_MOTION":"15.06383575","MEAN_ELEMENT_THEORY":"SGP4","REF_FRAME":"TEME","MEAN_MOTION_DDOT":"0.0000000000000","EPOCH":"2021-11-19T10:57:05.165856","PERIOD":"95.593","GP_ID":"190074912","ECCENTRICITY":"0.00010170","RCS_SIZE":"LARGE","DECAY_DATE":null,"PERIAPSIS":"546.560","TLE_LINE2":"2 47763  53.0710  70.0852 0001017  95.8249 264.2856 15.06383575 40834"},{"ECCENTRICITY":"0.00014020","PERIOD":"95.593","GP_ID":"190075664","OBJECT_TYPE":"PAYLOAD","MEAN_ELEMENT_THEORY":"SGP4","MEAN_MOTION":"15.06388620","REF_FRAME":"TEME","MEAN_MOTION_DDOT":"0.0000000000000","EPOCH":"2021-11-19T10:13:17.034240","TLE_LINE2":"2 47764  53.0571  80.2984 0001402  83.9205 276.1944 15.06388620 40743","PERIAPSIS":"546.277","DECAY_DATE":null,"RCS_SIZE":"LARGE","MEAN_ANOMALY":"276.1944","LAUNCH_DATE":"2021-03-04","COUNTRY_CODE":"US","EPHEMERIS_TYPE":"0","BSTAR":"0.00001547800000","OBJECT_ID":"2021-017AU","ARG_OF_PERICENTER":"83.9205","REV_AT_EPOCH":"4074","FILE":"3219209","SITE":"AFETR","TLE_LINE1":"1 47764U 21017AU  21323.42589160 -.00000051  00000-0  15478-4 0  9991","INCLINATION":"53.0571","CENTER_NAME":"EARTH","ELEMENT_SET_NO":"999","TIME_SYSTEM":"UTC","NORAD_CAT_ID":"47764","SEMIMAJOR_AXIS":"6925.383","RA_OF_ASC_NODE":"80.2984","MEAN_MOTION_DOT":"-0.00000051","CLASSIFICATION_TYPE":"U","APOAPSIS":"548.219","OBJECT_NAME":"STARLINK-2182"},{"TIME_SYSTEM":"UTC","ELEMENT_SET_NO":"999","SEMIMAJOR_AXIS":"6925.298","NORAD_CAT_ID":"47765","MEAN_MOTION_DOT":"-0.00002572","RA_OF_ASC_NODE":"59.8300","CLASSIFICATION_TYPE":"U","APOAPSIS":"548.114","OBJECT_NAME":"STARLINK-2183","EPHEMERIS_TYPE":"0","BSTAR":"-0.00015374000000","LAUNCH_DATE":"2021-03-04","COUNTRY_CODE":"US","MEAN_ANOMALY":"290.4439","ARG_OF_PERICENTER":"69.6697","OBJECT_ID":"2021-017AV","FILE":"3219097","REV_AT_EPOCH":"4036","TLE_LINE1":"1 47765U 21017AV  21323.52723361 -.00002572  00000-0 -15374-3 0  9991","SITE":"AFETR","INCLINATION":"53.0562","CENTER_NAME":"EARTH","TLE_LINE2":"2 47765  53.0562  59.8300 0001372  69.6697 290.4439 15.06416379 40369","PERIAPSIS":"546.213","DECAY_DATE":null,"RCS_SIZE":"LARGE","ECCENTRICITY":"0.00013720","PERIOD":"95.591","GP_ID":"190050080","REF_FRAME":"TEME","MEAN_MOTION":"15.06416379","MEAN_ELEMENT_THEORY":"SGP4","OBJECT_TYPE":"PAYLOAD","EPOCH":"2021-11-19T12:39:12.983904","MEAN_MOTION_DDOT":"0.0000000000000"},{"CENTER_NAME":"EARTH","INCLINATION":"53.0566","TLE_LINE1":"1 47766U 21017AW  21323.37797393 -.00000119  00000-0  10933-4 0  9992","SITE":"AFETR","FILE":"3219209","REV_AT_EPOCH":"4067","ARG_OF_PERICENTER":"86.1562","OBJECT_ID":"2021-017AW","EPHEMERIS_TYPE":"0","BSTAR":"0.00001093300000","LAUNCH_DATE":"2021-03-04","COUNTRY_CODE":"US","MEAN_ANOMALY":"273.9568","OBJECT_NAME":"STARLINK-2184","APOAPSIS":"548.083","CLASSIFICATION_TYPE":"U","MEAN_MOTION_DOT":"-0.00000119","RA_OF_ASC_NODE":"80.5101","NORAD_CAT_ID":"47766","SEMIMAJOR_AXIS":"6925.369","TIME_SYSTEM":"UTC","ELEMENT_SET_NO":"999","EPOCH":"2021-11-19T09:04:16.947552","MEAN_MOTION_DDOT":"0.0000000000000","MEAN_MOTION":"15.06393361","REF_FRAME":"TEME","MEAN_ELEMENT_THEORY":"SGP4","OBJECT_TYPE":"PAYLOAD","GP_ID":"190074162","PERIOD":"95.593","ECCENTRICITY":"0.00012260","RCS_SIZE":"LARGE","DECAY_DATE":null,"TLE_LINE2":"2 47766  53.0566  80.5101 0001226  86.1562 273.9568 15.06393361 40675","PERIAPSIS":"546.385"},{"PERIAPSIS":"546.338","TLE_LINE2":"2 47767  53.0567  65.3962 0001261  91.0058 269.1076 15.06400759 40959","RCS_SIZE":"LARGE","DECAY_DATE":null,"ECCENTRICITY":"0.00012610","MEAN_MOTION":"15.06400759","REF_FRAME":"TEME","MEAN_ELEMENT_THEORY":"SGP4","OBJECT_TYPE":"PAYLOAD","EPOCH":"2021-11-19T09:40:45.486336","MEAN_MOTION_DDOT":"0.0000000000000","PERIOD":"95.592","GP_ID":"190074413","SEMIMAJOR_AXIS":"6925.346","NORAD_CAT_ID":"47767","TIME_SYSTEM":"UTC","ELEMENT_SET_NO":"999","CLASSIFICATION_TYPE":"U","APOAPSIS":"548.085","OBJECT_NAME":"STARLINK-2185","MEAN_MOTION_DOT":"-0.00000161","RA_OF_ASC_NODE":"65.3962","ARG_OF_PERICENTER":"91.0058","OBJECT_ID":"2021-017AX","FILE":"3219209","REV_AT_EPOCH":"4095","BSTAR":"0.00000805280000","EPHEMERIS_TYPE":"0","COUNTRY_CODE":"US","LAUNCH_DATE":"2021-03-04","MEAN_ANOMALY":"269.1076","CENTER_NAME":"EARTH","TLE_LINE1":"1 47767U 21017AX  21323.40330424 -.00000161  00000-0  80528-5 0  9990","SITE":"AFETR","INCLINATION":"53.0567"},{"OBJECT_NAME":"STARLINK-2189","APOAPSIS":"548.141","CLASSIFICATION_TYPE":"U","RA_OF_ASC_NODE":"80.0986","MEAN_MOTION_DOT":"0.00000245","NORAD_CAT_ID":"47768","SEMIMAJOR_AXIS":"6925.368","ELEMENT_SET_NO":"999","TIME_SYSTEM":"UTC","CENTER_NAME":"EARTH","INCLINATION":"53.0566","SITE":"AFETR","TLE_LINE1":"1 47768U 21017AY  21323.47286796  .00000245  00000-0  35359-4 0  9993","REV_AT_EPOCH":"4007","FILE":"3219101","OBJECT_ID":"2021-017AY","ARG_OF_PERICENTER":"62.6285","COUNTRY_CODE":"US","LAUNCH_DATE":"2021-03-04","MEAN_ANOMALY":"297.4837","EPHEMERIS_TYPE":"0","BSTAR":"0.00003535900000","RCS_SIZE":"LARGE","DECAY_DATE":null,"PERIAPSIS":"546.325","TLE_LINE2":"2 47768  53.0566  80.0986 0001311  62.6285 297.4837 15.06393719 40070","MEAN_MOTION_DDOT":"0.0000000000000","EPOCH":"2021-11-19T11:20:55.791744","OBJECT_TYPE":"PAYLOAD","MEAN_ELEMENT_THEORY":"SGP4","MEAN_MOTION":"15.06393719","REF_FRAME":"TEME","GP_ID":"190050101","PERIOD":"95.593","ECCENTRICITY":"0.00013110"},{"PERIAPSIS":"546.348","TLE_LINE2":"2 47769  53.0551  44.8716 0001285  72.8062 287.3068 15.06392051 40566","DECAY_DATE":null,"RCS_SIZE":"LARGE","ECCENTRICITY":"0.00012850","PERIOD":"95.593","GP_ID":"190050091","MEAN_ELEMENT_THEORY":"SGP4","MEAN_MOTION":"15.06392051","REF_FRAME":"TEME","OBJECT_TYPE":"PAYLOAD","EPOCH":"2021-11-19T12:27:57.894048","MEAN_MOTION_DDOT":"0.0000000000000","TIME_SYSTEM":"UTC","ELEMENT_SET_NO":"999","NORAD_CAT_ID":"47769","SEMIMAJOR_AXIS":"6925.373","MEAN_MOTION_DOT":"-0.00001979","RA_OF_ASC_NODE":"44.8716","APOAPSIS":"548.128","CLASSIFICATION_TYPE":"U","OBJECT_NAME":"STARLINK-2192","EPHEMERIS_TYPE":"0","BSTAR":"-0.00011403000000","COUNTRY_CODE":"US","LAUNCH_DATE":"2021-03-04","MEAN_ANOMALY":"287.3068","ARG_OF_PERICENTER":"72.8062","OBJECT_ID":"2021-017AZ","FILE":"3219101","REV_AT_EPOCH":"4056","TLE_LINE1":"1 47769U 21017AZ  21323.51942007 -.00001979  00000-0 -11403-3 0  9993","SITE":"AFETR","INCLINATION":"53.0551","CENTER_NAME":"EARTH"},{"FILE":"3219209","REV_AT_EPOCH":"4101","ARG_OF_PERICENTER":"79.0748","OBJECT_ID":"2021-017BA","BSTAR":"0.00018735000000","EPHEMERIS_TYPE":"0","LAUNCH_DATE":"2021-03-04","COUNTRY_CODE":"US","MEAN_ANOMALY":"281.0370","CENTER_NAME":"EARTH","INCLINATION":"53.0563","TLE_LINE1":"1 47770U 21017BA  21323.52261664  .00002510  00000-0  18735-3 0  9994","SITE":"AFETR","NORAD_CAT_ID":"47770","SEMIMAJOR_AXIS":"6925.371","TIME_SYSTEM":"UTC","ELEMENT_SET_NO":"999","OBJECT_NAME":"STARLINK-2193","CLASSIFICATION_TYPE":"U","APOAPSIS":"548.035","MEAN_MOTION_DOT":"0.00002510","RA_OF_ASC_NODE":"59.8500","ECCENTRICITY":"0.00011540","EPOCH":"2021-11-19T12:32:34.077696","MEAN_MOTION_DDOT":"0.0000000000000","MEAN_ELEMENT_THEORY":"SGP4","MEAN_MOTION":"15.06392748","REF_FRAME":"TEME","OBJECT_TYPE":"PAYLOAD","GP_ID":"190074662","PERIOD":"95.593","TLE_LINE2":"2 47770  53.0563  59.8500 0001154  79.0748 281.0370 15.06392748 41014","PERIAPSIS":"546.437","RCS_SIZE":"LARGE","DECAY_DATE":null}];
